OBJECT_NAME,OBJECT_ID,EPOCH,MEAN_MOTION,ECCENTRICITY,INCLINATION,RA_OF_ASC_NODE,ARG_OF_PERICENTER,MEAN_ANOMALY,EPHEMERIS_TYPE,CLASSIFICATION_TYPE,NORAD_CAT_ID,ELEMENT_SET_NO,REV_AT_EPOCH,BSTAR,MEAN_MOTION_DOT,MEAN_MOTION_DDOT
STARLINK-6255,2023-065AZ,2026-06-15T08:14:40.363008,15.27575035,.0000382,42.9865,32.3794,251.1458,108.9352,0,U,56550,999,17140,.14744E-4,.144E-5,0
STARLINK-6199,2023-065BA,2026-06-14T22:25:40.279008,15.27577698,.0000991,43.0065,34.4641,260.9823,99.0917,0,U,56551,999,17134,.19644E-4,.278E-5,0
STARLINK-5802,2023-065BB,2026-06-15T08:01:42.796704,15.27574703,.0001231,43.0055,32.3029,266.6829,93.3882,0,U,56552,999,17140,-.35503E-5,-.36E-5,0
STARLINK-6074,2023-065BC,2026-06-14T21:57:55.160064,15.27575504,.0001269,43.0052,34.3175,251.3202,108.7512,0,U,56553,999,17134,.33724E-5,-.169E-5,0
STARLINK-6295,2023-065BD,2026-06-15T08:07:15.892896,15.27575003,.0001164,43.0116,32.3380,269.5082,90.5636,0,U,56554,999,17140,-.78952E-5,-.479E-5,0
STARLINK-6252,2023-065BE,2026-06-14T21:43:06.860064,15.27579037,.0002072,43.0121,34.2522,274.8300,85.2315,0,U,56555,999,17134,.21035E-4,.316E-5,0
STARLINK-5302,2023-065BF,2026-06-15T07:28:24.457152,15.27577646,.0001351,43.0029,32.1337,245.2438,114.8273,0,U,56556,999,17140,.13973E-4,.122E-5,0
STARLINK-6265,2023-065BG,2026-06-15T07:45:03.844224,15.27573502,.0001047,43.0035,32.2170,260.3207,99.7526,0,U,56557,999,17140,-.57349E-5,-.42E-5,0
STARLINK-6286,2023-065BH,2026-06-15T07:46:12.153792,15.27577704,.0001392,43.0051,35.6257,243.6005,116.4704,0,U,56558,999,17136,-.18576E-4,-.773E-5,0
BEIDOU-3 G4,2023-066A,2026-06-15T12:00:52.544160,1.00274206,.0004299,0.4884,331.0501,181.7940,71.1729,0,U,56564,999,1137,0,-.278E-5,0
STARLINK-30122,2023-067A,2026-06-15T11:35:15.490752,15.27571255,.0001063,43.0053,85.7761,277.6790,82.3941,0,U,56688,999,17064,.38482E-4,.797E-5,0
STARLINK-30129,2023-067B,2026-06-15T01:43:40.952928,15.27591684,.00008066,43.0061,91.2692,265.6995,94.3764,0,U,56689,999,17047,.75981967E-4,.183E-4,0
STARLINK-30124,2023-067C,2026-06-15T11:17:54.019104,15.27572327,.0001264,43.0032,89.1115,266.4322,93.6385,0,U,56690,999,17053,.94607E-5,-.2E-7,0
STARLINK-30036,2023-067E,2026-06-15T01:40:01.432128,15.27562108,.00014174,43.0049,91.2793,262.2902,97.7789,0,U,56692,999,16934,-.61509159E-4,-.1953E-4,0
STARLINK-30067,2023-067F,2026-06-14T11:41:51.337536,15.27573560,.00012165,43.0018,94.6487,263.3137,96.7576,0,U,56693,999,17038,.17289422E-4,.214E-5,0
STARLINK-30126,2023-067G,2026-06-15T10:51:34.437024,15.27573011,.0001218,43.0026,82.1841,256.8407,103.2309,0,U,56694,999,17061,-.13552E-5,-.299E-5,0
STARLINK-30121,2023-067H,2026-06-15T11:19:44.664672,15.27576374,.0001519,43.0023,89.1212,267.4523,92.6155,0,U,56695,999,17053,.18256E-4,.24E-5,0
STARLINK-30130,2023-067K,2026-06-15T01:19:57.892224,15.27561649,.00014347,42.9985,80.9535,263.1464,96.9224,0,U,56697,999,17033,-.30691835E-4,-.1106E-4,0
STARLINK-30068,2023-067L,2026-06-14T10:17:15.234720,15.27574269,.00010351,43.0061,73.5605,247.7408,112.3334,0,U,56698,999,17036,-.12434447E-4,-.604E-5,0
STARLINK-30127,2023-067M,2026-06-15T11:30:51.383232,15.27575554,.0000983,43.0040,89.1951,261.1402,98.9338,0,U,56699,999,17053,.51721E-5,-.12E-5,0
STARLINK-30053,2023-067N,2026-06-15T11:16:20.002944,15.27573478,.0000585,43.0051,78.9072,231.4199,128.6600,0,U,56700,999,17065,-.25122E-4,-.953E-5,0
STARLINK-30125,2023-067P,2026-06-15T11:12:39.432384,15.27556839,.0001598,43.0087,78.8903,262.7345,97.3325,0,U,56701,999,17065,-.87016E-4,-.2654E-4,0
STARLINK-30117,2023-067Q,2026-06-15T11:38:57.626016,15.27564907,.0000675,43.0056,85.7643,277.2846,82.7929,0,U,56702,999,17057,.13908E-4,.121E-5,0
STARLINK-30132,2023-067R,2026-06-15T00:58:52.367232,15.27578445,.0002221,43.0121,84.2551,275.1280,84.9319,0,U,56703,999,17055,.13605786E-4,.112E-5,0
STARLINK-30066,2023-067S,2026-06-15T10:50:25.271232,15.27577094,.0001039,43.0035,78.7523,268.0801,91.9932,0,U,56704,999,17065,.1301E-4,.96E-6,0
STARLINK-30080,2023-067T,2026-06-15T10:51:36.025056,15.27574905,.0001295,43.0003,70.9440,277.6535,82.4170,0,U,56705,999,17074,.31743E-5,-.175E-5,0
STARLINK-30079,2023-067U,2026-06-15T11:21:35.151264,15.27588174,.0000906,43.0096,89.1468,255.5256,104.5495,0,U,56706,999,17053,.61896E-4,.1442E-4,0
STARLINK-30070,2023-067V,2026-06-14T11:45:49.783392,15.27576793,.00011646,43.0039,84.4494,249.3442,110.7285,0,U,56707,999,17050,.2748829E-5,-.186E-5,0
STARLINK-30071,2023-067W,2026-06-15T11:32:16.598688,15.27575796,.0000356,42.9892,82.3888,237.5268,122.5549,0,U,56708,999,17061,.1459E-4,.14E-5,0
STARLINK-30085,2023-067X,2026-06-14T11:06:57.995136,15.27587653,.00009275,43.0051,84.2442,272.6983,87.3762,0,U,56709,999,17024,.65476326E-4,.1541E-4,0
