STARLINK-6255           
1 56550U 23065AZ  26166.34352272  .00000144  00000+0  14744-4 0  9998
2 56550  42.9865  32.3794 0000382 251.1458 108.9352 15.27575035171405
STARLINK-6199           
1 56551U 23065BA  26165.93449397  .00000278  00000+0  19644-4 0  9990
2 56551  43.0065  34.4641 0000991 260.9823  99.0917 15.27577698171341
STARLINK-5802           
1 56552U 23065BB  26166.33452311 -.00000360  00000+0 -35503-5 0  9993
2 56552  43.0055  32.3029 0001231 266.6829  93.3882 15.27574703171404
STARLINK-6074           
1 56553U 23065BC  26165.91522176 -.00000169  00000+0  33724-5 0  9993
2 56553  43.0052  34.3175 0001269 251.3202 108.7512 15.27575504171347
STARLINK-6295           
1 56554U 23065BD  26166.33837839 -.00000479  00000+0 -78952-5 0  9993
2 56554  43.0116  32.3380 0001164 269.5082  90.5636 15.27575003171402
STARLINK-6252           
1 56555U 23065BE  26165.90494051  .00000316  00000+0  21035-4 0  9998
2 56555  43.0121  34.2522 0002072 274.8300  85.2315 15.27579037171348
STARLINK-5302           
1 56556U 23065BF  26166.31139418  .00000122  00000+0  13973-4 0  9995
2 56556  43.0029  32.1337 0001351 245.2438 114.8273 15.27577646171403
STARLINK-6265           
1 56557U 23065BG  26166.32296116 -.00000420  00000+0 -57349-5 0  9995
2 56557  43.0035  32.2170 0001047 260.3207  99.7526 15.27573502171400
STARLINK-6286           
1 56558U 23065BH  26166.32375178 -.00000773  00000+0 -18576-4 0  9991
2 56558  43.0051  35.6257 0001392 243.6005 116.4704 15.27577704171363
BEIDOU-3 G4             
1 56564U 23066A   26166.50060815 -.00000278  00000+0  00000+0 0  9995
2 56564   0.4884 331.0501 0004299 181.7940  71.1729  1.00274206 11370
STARLINK-30122          
1 56688U 23067A   26166.48281818  .00000797  00000+0  38482-4 0  9993
2 56688  43.0053  85.7761 0001063 277.6790  82.3941 15.27571255170647
STARLINK-30129          
1 56689U 23067B   26166.07200177  .00001830  00000+0  75982-4 0  9993
2 56689  43.0061  91.2692 0000806 265.6995  94.3764 15.27591684170475
STARLINK-30124          
1 56690U 23067C   26166.47076411 -.00000002  00000+0  94607-5 0  9998
2 56690  43.0032  89.1115 0001264 266.4322  93.6385 15.27572327170534
STARLINK-30036          
1 56692U 23067E   26166.06946102 -.00001953  00000+0 -61509-4 0  9999
2 56692  43.0049  91.2793 0001417 262.2902  97.7789 15.27562108169344
STARLINK-30067          
1 56693U 23067F   26165.48739974  .00000214  00000+0  17289-4 0  9995
2 56693  43.0018  94.6487 0001216 263.3137  96.7576 15.27573560170380
STARLINK-30126          
1 56694U 23067G   26166.45248191 -.00000299  00000+0 -13552-5 0  9995
2 56694  43.0026  82.1841 0001218 256.8407 103.2309 15.27573011170610
STARLINK-30121          
1 56695U 23067H   26166.47204473  .00000240  00000+0  18256-4 0  9992
2 56695  43.0023  89.1212 0001519 267.4523  92.6155 15.27576374170534
STARLINK-30130          
1 56697U 23067K   26166.05553116 -.00001106  00000+0 -30692-4 0  9991
2 56697  42.9985  80.9535 0001434 263.1464  96.9224 15.27561649170332
STARLINK-30068          
1 56698U 23067L   26165.42864855 -.00000604  00000+0 -12434-4 0  9993
2 56698  43.0061  73.5605 0001035 247.7408 112.3334 15.27574269170369
STARLINK-30127          
1 56699U 23067M   26166.47976138 -.00000120  00000+0  51721-5 0  9993
2 56699  43.0040  89.1951 0000983 261.1402  98.9338 15.27575554170539
STARLINK-30053          
1 56700U 23067N   26166.46967596 -.00000953  00000+0 -25122-4 0  9993
2 56700  43.0051  78.9072 0000585 231.4199 128.6600 15.27573478170654
STARLINK-30125          
1 56701U 23067P   26166.46712306 -.00002654  00000+0 -87016-4 0  9991
2 56701  43.0087  78.8903 0001598 262.7345  97.3325 15.27556839170659
STARLINK-30117          
1 56702U 23067Q   26166.48538919  .00000121  00000+0  13908-4 0  9994
2 56702  43.0056  85.7643 0000675 277.2846  82.7929 15.27564907170570
STARLINK-30132          
1 56703U 23067R   26166.04088388  .00000112  00000+0  13606-4 0  9992
2 56703  43.0121  84.2551 0002221 275.1280  84.9319 15.27578445170551
STARLINK-30066          
1 56704U 23067S   26166.45168138  .00000096  00000+0  13010-4 0  9990
2 56704  43.0035  78.7523 0001039 268.0801  91.9932 15.27577094170658
STARLINK-30080          
1 56705U 23067T   26166.45250029 -.00000175  00000+0  31743-5 0  9995
2 56705  43.0003  70.9440 0001295 277.6535  82.4170 15.27574905170747
STARLINK-30079          
1 56706U 23067U   26166.47332351  .00001442  00000+0  61896-4 0  9995
2 56706  43.0096  89.1468 0000906 255.5256 104.5495 15.27588174170531
STARLINK-30070          
1 56707U 23067V   26165.49015953 -.00000186  00000+0  27488-5 0  9998
2 56707  43.0039  84.4494 0001164 249.3442 110.7285 15.27576793170508
STARLINK-30071          
1 56708U 23067W   26166.48074767  .00000140  00000+0  14590-4 0  9995
2 56708  42.9892  82.3888 0000356 237.5268 122.5549 15.27575796170613
STARLINK-30085          
1 56709U 23067X   26165.46317124  .00001541  00000+0  65476-4 0  9995
2 56709  43.0051  84.2442 0000927 272.6983  87.3762 15.27587653170247
